{
  "type": "FeatureCollection",
  "features": [
    {
      "type": "Feature",
      "properties": {
        "norad_id": 40938,
        "name": "BEIDOU-3S IGSO-2S (C56)",
        "group": "gnss",
        "lat": 0.3827325386649665,
        "lon": 80.51298669659369,
        "alt_km": 35534.32929303715,
        "timestamp": "2025-12-27T16:33:30.466115+00:00",
        "meta_object_name": "BEIDOU-3S IGSO-2S (C56)",
        "meta_object_id": "2015-053A",
        "meta_epoch": "2025-12-27T13:45:43.029216",
        "meta_mean_motion": 1.00266563,
        "meta_eccentricity": 0.0060728,
        "meta_inclination": 49.4874,
        "meta_ra_of_asc_node": 260.8314,
        "meta_arg_of_pericenter": 188.237,
        "meta_mean_anomaly": 309.3634,
        "meta_ephemeris_type": 0,
        "meta_classification_type": "U",
        "meta_norad_cat_id": 40938,
        "meta_element_set_no": 999,
        "meta_rev_at_epoch": 3763,
        "meta_bstar": 0,
        "meta_mean_motion_dot": -1.27e-06,
        "meta_mean_motion_ddot": 0,
        "tle_line1": "1 40938U 15053A   25361.57341469 -.00000127  00000+0  00000+0 0  9993",
        "tle_line2": "2 40938  49.4874 260.8314 0060728 188.2370 309.3634  1.00266563 37634"
      },
      "geometry": {
        "type": "Point",
        "coordinates": [
          80.51298669659369,
          0.3827325386649665
        ]
      }
    },
    {
      "type": "Feature",
      "properties": {
        "norad_id": 41019,
        "name": "GPS BIIF-11 (PRN 10)",
        "group": "gnss",
        "lat": -43.63854415192517,
        "lon": -1.1026701648168944,
        "alt_km": 20103.08365797069,
        "timestamp": "2025-12-27T16:33:30.466126+00:00",
        "meta_object_name": "GPS BIIF-11 (PRN 10)",
        "meta_object_id": "2015-062A",
        "meta_epoch": "2025-12-26T06:30:53.631648",
        "meta_mean_motion": 2.00567029,
        "meta_eccentricity": 0.0111129,
        "meta_inclination": 56.842,
        "meta_ra_of_asc_node": 37.479,
        "meta_arg_of_pericenter": 230.2895,
        "meta_mean_anomaly": 128.7854,
        "meta_ephemeris_type": 0,
        "meta_classification_type": "U",
        "meta_norad_cat_id": 41019,
        "meta_element_set_no": 999,
        "meta_rev_at_epoch": 7436,
        "meta_bstar": 0,
        "meta_mean_motion_dot": -4.9e-07,
        "meta_mean_motion_ddot": 0,
        "tle_line1": "1 41019U 15062A   25360.27145407 -.00000049  00000+0  00000+0 0  9997",
        "tle_line2": "2 41019  56.8420  37.4790 0111129 230.2895 128.7854  2.00567029 74362"
      },
      "geometry": {
        "type": "Point",
        "coordinates": [
          -1.1026701648168944,
          -43.63854415192517
        ]
      }
    },
    {
      "type": "Feature",
      "properties": {
        "norad_id": 41028,
        "name": "GSAT-15 (GAGAN/PRN 139)",
        "group": "gnss",
        "lat": 0.03319316132473008,
        "lon": 78.27588730317352,
        "alt_km": 35797.83569765902,
        "timestamp": "2025-12-27T16:33:30.466138+00:00",
        "meta_object_name": "GSAT-15 (GAGAN/PRN 139)",
        "meta_object_id": "2015-065A",
        "meta_epoch": "2025-12-27T06:35:42.129888",
        "meta_mean_motion": 1.00268015,
        "meta_eccentricity": 0.0002555,
        "meta_inclination": 0.0154,
        "meta_ra_of_asc_node": 0.794,
        "meta_arg_of_pericenter": 247.9825,
        "meta_mean_anomaly": 39.6566,
        "meta_ephemeris_type": 0,
        "meta_classification_type": "U",
        "meta_norad_cat_id": 41028,
        "meta_element_set_no": 999,
        "meta_rev_at_epoch": 3707,
        "meta_bstar": 0,
        "meta_mean_motion_dot": 0,
        "meta_mean_motion_ddot": 0,
        "tle_line1": "1 41028U 15065A   25361.27479317  .00000000  00000+0  00000+0 0  9997",
        "tle_line2": "2 41028   0.0154   0.7940 0002555 247.9825  39.6566  1.00268015 37076"
      },
      "geometry": {
        "type": "Point",
        "coordinates": [
          78.27588730317352,
          0.03319316132473008
        ]
      }
    },
    {
      "type": "Feature",
      "properties": {
        "norad_id": 41174,
        "name": "GSAT0209 (GALILEO 12)",
        "group": "gnss",
        "lat": -32.661217341692925,
        "lon": 80.07949288114467,
        "alt_km": 23218.867003142088,
        "timestamp": "2025-12-27T16:33:30.466149+00:00",
        "meta_object_name": "GSAT0209 (GALILEO 12)",
        "meta_object_id": "2015-079A",
        "meta_epoch": "2025-12-27T04:04:26.723136",
        "meta_mean_motion": 1.70474435,
        "meta_eccentricity": 0.0002673,
        "meta_inclination": 55.7206,
        "meta_ra_of_asc_node": 105.9849,
        "meta_arg_of_pericenter": 340.8041,
        "meta_mean_anomaly": 19.1801,
        "meta_ephemeris_type": 0,
        "meta_classification_type": "U",
        "meta_norad_cat_id": 41174,
        "meta_element_set_no": 999,
        "meta_rev_at_epoch": 6184,
        "meta_bstar": 0,
        "meta_mean_motion_dot": 1.5e-07,
        "meta_mean_motion_ddot": 0,
        "tle_line1": "1 41174U 15079A   25361.16975374  .00000015  00000+0  00000+0 0  9992",
        "tle_line2": "2 41174  55.7206 105.9849 0002673 340.8041  19.1801  1.70474435 61842"
      },
      "geometry": {
        "type": "Point",
        "coordinates": [
          80.07949288114467,
          -32.661217341692925
        ]
      }
    },
    {
      "type": "Feature",
      "properties": {
        "norad_id": 41175,
        "name": "GSAT0208 (GALILEO 11)",
        "group": "gnss",
        "lat": -3.4326247668048278,
        "lon": -71.69165087499306,
        "alt_km": 23228.552756195793,
        "timestamp": "2025-12-27T16:33:30.466162+00:00",
        "meta_object_name": "GSAT0208 (GALILEO 11)",
        "meta_object_id": "2015-079B",
        "meta_epoch": "2025-12-26T19:16:48.817056",
        "meta_mean_motion": 1.70474041,
        "meta_eccentricity": 0.00020772,
        "meta_inclination": 55.719,
        "meta_ra_of_asc_node": 105.9921,
        "meta_arg_of_pericenter": 340.7165,
        "meta_mean_anomaly": 19.2705,
        "meta_ephemeris_type": 0,
        "meta_classification_type": "U",
        "meta_norad_cat_id": 41175,
        "meta_element_set_no": 999,
        "meta_rev_at_epoch": 6225,
        "meta_bstar": 0,
        "meta_mean_motion_dot": 1.7e-07,
        "meta_mean_motion_ddot": 0,
        "tle_line1": "1 41175U 15079B   25360.80334279  .00000017  00000+0  00000+0 0  9998",
        "tle_line2": "2 41175  55.7190 105.9921 0002077 340.7165  19.2705  1.70474041 62253"
      },
      "geometry": {
        "type": "Point",
        "coordinates": [
          -71.69165087499306,
          -3.4326247668048278
        ]
      }
    },
    {
      "type": "Feature",
      "properties": {
        "norad_id": 41241,
        "name": "IRNSS-1E",
        "group": "gnss",
        "lat": 17.752135732530153,
        "lon": 91.94575418689233,
        "alt_km": 35863.22616908322,
        "timestamp": "2025-12-27T16:33:30.466174+00:00",
        "meta_object_name": "IRNSS-1E",
        "meta_object_id": "2016-003A",
        "meta_epoch": "2025-12-26T15:54:48.991392",
        "meta_mean_motion": 1.00277951,
        "meta_eccentricity": 0.00209932,
        "meta_inclination": 32.8574,
        "meta_ra_of_asc_node": 62.2508,
        "meta_arg_of_pericenter": 189.6283,
        "meta_mean_anomaly": 193.9579,
        "meta_ephemeris_type": 0,
        "meta_classification_type": "U",
        "meta_norad_cat_id": 41241,
        "meta_element_set_no": 999,
        "meta_rev_at_epoch": 3635,
        "meta_bstar": 0,
        "meta_mean_motion_dot": -2.94e-06,
        "meta_mean_motion_ddot": 0,
        "tle_line1": "1 41241U 16003A   25360.66306703 -.00000294  00000+0  00000+0 0  9993",
        "tle_line2": "2 41241  32.8574  62.2508 0020993 189.6283 193.9579  1.00277951 36358"
      },
      "geometry": {
        "type": "Point",
        "coordinates": [
          91.94575418689233,
          17.752135732530153
        ]
      }
    },
    {
      "type": "Feature",
      "properties": {
        "norad_id": 41328,
        "name": "GPS BIIF-12 (PRN 32)",
        "group": "gnss",
        "lat": -47.43451323349643,
        "lon": -35.12306014899834,
        "alt_km": 19941.311656118505,
        "timestamp": "2025-12-27T16:33:30.466185+00:00",
        "meta_object_name": "GPS BIIF-12 (PRN 32)",
        "meta_object_id": "2016-007A",
        "meta_epoch": "2025-12-27T08:26:09.961152",
        "meta_mean_motion": 2.00559889,
        "meta_eccentricity": 0.0092886,
        "meta_inclination": 55.4141,
        "meta_ra_of_asc_node": 96.277,
        "meta_arg_of_pericenter": 243.9752,
        "meta_mean_anomaly": 115.0799,
        "meta_ephemeris_type": 0,
        "meta_classification_type": "U",
        "meta_norad_cat_id": 41328,
        "meta_element_set_no": 999,
        "meta_rev_at_epoch": 7239,
        "meta_bstar": 0,
        "meta_mean_motion_dot": 2e-08,
        "meta_mean_motion_ddot": 0,
        "tle_line1": "1 41328U 16007A   25361.35150418  .00000002  00000+0  00000+0 0  9996",
        "tle_line2": "2 41328  55.4141  96.2770 0092886 243.9752 115.0799  2.00559889 72395"
      },
      "geometry": {
        "type": "Point",
        "coordinates": [
          -35.12306014899834,
          -47.43451323349643
        ]
      }
    }
  ]
}